#aV2022  4 29  0  0  0.00000000     288 DD+AD WGS84 FIT  NGA
## 2207 432000.00000000   300.00000000 59698 0.0000000000000
+   32     1  2  3  4  5  6  7  8  9 10 11 12 13 14 15 16 17
+         18 19 20 21 22 23 24 25 26 27 28 29 30 31 32  0  0
+          0  0  0  0  0  0  0  0  0  0  0  0  0  0  0  0  0
+          0  0  0  0  0  0  0  0  0  0  0  0  0  0  0  0  0
+          0  0  0  0  0  0  0  0  0  0  0  0  0  0  0  0  0
++         2  2  2  2  2  2  2  2  2  2  2  2  2  2  2  2  2
++         2  2  2  2  2  2  2  2  2  2  2  2  2  2  2  0  0
++         0  0  0  0  0  0  0  0  0  0  0  0  0  0  0  0  0
++         0  0  0  0  0  0  0  0  0  0  0  0  0  0  0  0  0
++         0  0  0  0  0  0  0  0  0  0  0  0  0  0  0  0  0
%c cc cc ccc ccc cccc cccc cccc cccc ccccc ccccc ccccc ccccc
%c cc cc ccc ccc cccc cccc cccc cccc ccccc ccccc ccccc ccccc
%f  0.0000000  0.000000000  0.00000000000  0.000000000000000
%f  0.0000000  0.000000000  0.00000000000  0.000000000000000
%i    0    0    0    0      0      0      0      0         0
%i    0    0    0    0      0      0      0      0         0
/*      NGA, ST. LOUIS,MO.                                  
/*   EPHEMERIS COMPUTED FROM 2 DAYS OF DATA                 
/*   EPOCHA v7 SMOOTHER                                     
/*   G2139 IERS2010 SATIGS SATAPC                           
*  2022  4 29 10 10  0.00000000
P  1 -20967.969648 -14221.278952  -8847.643751    374.186713                    
V  1  10506.645338   2442.026783 -29479.208174     -0.085045                    
P  2    889.552624  15938.923708  21862.888961   -653.260419                    
V  2 -25400.791419  -6588.433964   6164.284780     -0.000536                    
P  3 -12675.548606 -19012.286266  13529.421661   -225.429271                    
V  3  -1148.803804 -17351.162466 -25147.120463     -0.146381                    
P  4 -12937.920644  -8903.561770  21438.553303   -171.836066                    
V  4  21157.884104 -17080.315929   5593.528662      0.033372                    
P  5   5339.009695  25926.619918    439.450991    -80.023929                    
V  5  -3063.440901   -105.397813  31837.124039     -0.013614                    
P  6 -15300.881247   8463.529746  20081.902286    284.299314                    
V  6 -23410.426840  -9529.147996 -13785.865729      0.141217                    
P  7 -25578.634289  -4971.696493  -5960.336874    321.358878                    
V  7  -6559.260849  -5269.480971  30014.778691      0.007182                    
P  8  -4433.801475 -15541.213263 -21050.940955    -65.905444                    
V  8  20694.850808 -16901.446505   8479.744397     -0.015895                    
P  9 -20241.197102   1557.009515  17076.213460   -340.453300                    
V  9  15238.165112 -15726.276252  19391.526016      0.026943                    
P 10  12482.030725 -10497.376675 -20752.742668   -395.921863                    
V 10   5586.036132  26148.397318 -10079.377157     -0.135228                    
P 11    145.149676  16069.124258  21145.535917    -32.069338                    
V 11 -24931.467472  -9985.666674   7743.757270      0.059030                    
P 12   9431.880324  22521.703567  10327.092884   -207.694715                    
V 12   -839.052736  13615.681726 -28077.321911     -0.058217                    
P 13  -5724.730152  18462.392443 -18290.900502    302.598050                    
V 13 -20219.746206  10979.451974  17721.511352      0.067014                    
P 14 -13690.971043   9167.216014 -20819.119669   -105.617249                    
V 14  -4425.842727 -26114.884395  -8674.088740     -0.022563                    
P 15   7324.664284  15094.069883 -20950.967169    -65.207962                    
V 15 -18271.935986  18311.534609   7257.486883      0.029671                    
P 16    854.697055 -25882.348441   4389.931205   -496.295128                    
V 16   3408.525963   5721.017209  31586.352919     -0.035577                    
P 17 -22251.717069  14234.075832  -2568.666821    606.353691                    
V 17   1726.434447  -4034.794980 -31901.705971      0.047864                    
P 18  25333.530196   5252.868796  -6258.479747    183.366464                    
V 18   6542.273923   4989.979009  30599.396723     -0.097819                    
P 19 -20196.456091  16592.001127   3795.693653    150.680279                    
V 19  -5652.810537    838.499604 -31774.940030      0.049951                    
P 20    -44.004847  24334.042886  10917.804680    515.603196                    
V 20  -7077.701996 -12177.985290  26888.939350     -0.001789                    
P 21 -13844.690197 -15594.987504 -16184.770662    160.801530                    
V 21  21168.435320   4160.906326 -20620.075412      0.002477                    
P 22  17660.746660 -18532.455216   7123.950680    250.989602                    
V 22   8561.020194  -2688.834575 -30137.882033      0.060748                    
P 23  15475.024484   1720.283230 -21539.113046    -18.425829                    
V 23   5047.692723  26822.313848   5673.778643     -0.026795                    
P 24  18640.162960  14788.958068 -12514.015455    249.538922                    
V 24 -15459.132465  -1629.710597 -25155.086748     -0.059382                    
P 25  15406.678332  10073.488520  18956.203515    318.217738                    
V 25   3089.072913  24445.999079 -15001.883199      0.049193                    
P 26   6492.947761 -20714.128560  15008.520041    202.088440                    
V 26   7063.778317  18273.363151  22342.685610      0.027078                    
P 27   7713.403516 -20168.235299 -15404.299604    193.610437                    
V 27  16055.299413 -10918.745177  23031.101099      0.076714                    
P 28  -9803.330661  18166.233497 -16328.712053    365.803270                    
V 28  -3432.704812 -21394.280891 -20861.738830     -0.051236                    
P 29  19728.110384    492.662016  17755.564433   -508.283981                    
V 29 -17617.110418  14175.897252  19063.061317     -0.040831                    
P 30 -22421.953946   2502.897821 -14133.854301   -525.853520                    
V 30 -15922.255690  -8862.859276  23304.586069     -0.016000                    
P 31  13577.218172 -10171.208080  20417.284563   -175.487207                    
V 31  24020.823618  10284.099711 -10325.629550     -0.016300                    
P 32  20672.647190 -16453.508991  -1204.282653   -115.785415                    
V 32    691.550108   3457.306136 -31764.914936     -0.083382                    
EOF
